[{"OBJECT_NAME":"BRO-10","OBJECT_ID":"2023-174CD","EPOCH":"2026-03-09T23:34:33.500352","MEAN_MOTION":15.73235012,"ECCENTRICITY":0.00030107,"INCLINATION":97.3656,"RA_OF_ASC_NODE":162.3972,"ARG_OF_PERICENTER":146.5418,"MEAN_ANOMALY":213.6037,"EPHEMERIS_TYPE":0,"CLASSIFICATION_TYPE":"U","NORAD_CAT_ID":58331,"ELEMENT_SET_NO":999,"REV_AT_EPOCH":13076,"BSTAR":0.0013973225,"MEAN_MOTION_DOT":0.00196052,"MEAN_MOTION_DDOT":0},{"OBJECT_NAME":"STARLINK-11262 [DTC]","OBJECT_ID":"2024-213B","EPOCH":"2026-03-09T04:40:49.080864","MEAN_MOTION":15.69681129,"ECCENTRICITY":0.00015575,"INCLINATION":53.158,"RA_OF_ASC_NODE":43.9857,"ARG_OF_PERICENTER":70.8478,"MEAN_ANOMALY":289.2708,"EPHEMERIS_TYPE":0,"CLASSIFICATION_TYPE":"U","NORAD_CAT_ID":62009,"ELEMENT_SET_NO":999,"REV_AT_EPOCH":7483,"BSTAR":0.0024809107,"MEAN_MOTION_DOT":0.00311143,"MEAN_MOTION_DDOT":0}]
